NORAD_CAT_ID,OBJECT_NAME,OBJECT_TYPE,EPOCH,MEAN_MOTION,ECCENTRICITY,INCLINATION,RA_OF_ASC_NODE,ARG_OF_PERICENTER,MEAN_ANOMALY,BSTAR,MEAN_MOTION_DOT,MEAN_MOTION_DDOT,TLE_LINE0,TLE_LINE1,TLE_LINE2,SEMIMAJOR_AXIS,PERIOD,APOGEE,PERIGEE,DECAYED
53179.0,STARLINK-4276,PAYLOAD,2024-05-28 07:55:56,15.08840805,0.000144,53.2164,163.2925,98.7661,261.3495,7.0842e-05,8.4e-06,0.0,0 STARLINK-4276,1 53179U 22083AZ  24149.33051700  .00000840  00000-0  70842-4 0  9996,2 53179  53.2164 163.2925 0001440  98.7661 261.3495 15.08840805104376,6917.878,95.438,540.739,538.747,0.0
53179.0,STARLINK-4276,PAYLOAD,2024-05-29 07:46:43,15.08837108,0.0001304,53.2161,158.8328,92.4276,267.6866,7.8169e-05,9.56e-06,0.0,0 STARLINK-4276,1 53179U 22083AZ  24150.32411880  .00000956  00000-0  78169-4 0  9994,2 53179  53.2161 158.8328 0001304  92.4276 267.6866 15.08837108103880,6917.889,95.438,540.656,538.852,0.0
53179.0,STARLINK-4276,PAYLOAD,2024-05-30 04:26:46,15.08822757,0.0001468,53.2168,154.9684,96.0783,264.0377,-7.3728e-05,-1.461e-05,0.0,0 STARLINK-4276,1 53179U 22083AZ  24151.18525924 -.00001461  00000-0 -73728-4 0  9994,2 53179  53.2168 154.9684 0001468  96.0783 264.0377 15.08822757104651,6917.933,95.439,540.814,538.783,0.0
53179.0,STARLINK-4276,PAYLOAD,2024-05-30 07:37:32,15.0882306,0.0001438,53.2165,154.3734,93.8975,266.2182,-7.6144e-05,-1.499e-05,0.0,0 STARLINK-4276,1 53179U 22083AZ  24151.31774004 -.00001499  00000-0 -76144-4 0  9990,2 53179  53.2165 154.3734 0001438  93.8975 266.2182 15.08823060104031,6917.932,95.439,540.792,538.802,0.0
53179.0,STARLINK-4276,PAYLOAD,2024-05-31 04:17:33,15.08835672,0.0001477,53.2166,150.5077,108.4989,251.6164,4.8831e-05,4.89e-06,0.0,0 STARLINK-4276,1 53179U 22083AZ  24152.17885423  .00000489  00000-0  48831-4 0  9991,2 53179  53.2166 150.5077 0001477 108.4989 251.6164 15.08835672104806,6917.894,95.438,540.78,538.737,0.0
53179.0,STARLINK-4276,PAYLOAD,2024-05-31 07:28:18,15.08845115,0.0001857,53.2168,149.9125,101.0951,259.025,7.6194e-06,-1.67e-06,0.0,0 STARLINK-4276,1 53179U 22083AZ  24152.31133067 -.00000167  00000-0  76194-5 0  9995,2 53179  53.2168 149.9125 0001857 101.0951 259.0250 15.08845115104827,6917.865,95.437,541.014,538.445,0.0
53179.0,STARLINK-4276,PAYLOAD,2024-05-31 17:00:38,15.08839074,0.0001498,53.2168,148.1309,94.8717,265.2447,8.5406e-05,1.071e-05,0.0,0 STARLINK-4276,1 53179U 22083AZ  24152.70877489  .00001071  00000-0  85406-4 0  9990,2 53179  53.2168 148.1309 0001498  94.8717 265.2447 15.08839074104882,6917.883,95.438,540.785,538.712,0.0
53179.0,STARLINK-4276,PAYLOAD,2024-06-01 08:54:29,15.08838489,0.0001356,53.2158,145.1555,99.5811,260.5335,0.00023468,3.449e-05,0.0,0 STARLINK-4276,1 53179U 22083AZ  24153.37117728  .00003449  00000-0  23468-3 0  9997,2 53179  53.2158 145.1555 0001356  99.5811 260.5335 15.08838489104345,6917.885,95.438,540.688,538.812,0.0
53179.0,STARLINK-4276,PAYLOAD,2024-06-02 05:34:29,15.08854576,0.0001353,53.215,141.2899,98.1817,261.9329,0.00025099,3.71e-05,0.0,0 STARLINK-4276,1 53179U 22083AZ  24154.23228968  .00003710  00000-0  25099-3 0  9995,2 53179  53.2150 141.2899 0001353  98.1817 261.9329 15.08854576105112,6917.836,95.437,540.637,538.765,0.0
53179.0,STARLINK-4276,PAYLOAD,2024-06-02 23:03:44,15.0885321,0.0001326,53.215,138.0184,98.9816,261.1326,0.00018391,2.641e-05,0.0,0 STARLINK-4276,1 53179U 22083AZ  24154.96092606  .00002641  00000-0  18391-3 0  9992,2 53179  53.2150 138.0184 0001326  98.9816 261.1326 15.08853210104583,6917.84,95.437,540.622,538.788,0.0
53179.0,STARLINK-4276,PAYLOAD,2024-06-03 05:25:16,15.08847273,0.0001333,53.2155,136.83,94.1201,265.9943,7.6868e-05,9.36e-06,0.0,0 STARLINK-4276,1 53179U 22083AZ  24155.22588781  .00000936  00000-0  76868-4 0  9995,2 53179  53.2155 136.8300 0001333  94.1201 265.9943 15.08847273105263,6917.858,95.437,540.645,538.801,0.0
53179.0,STARLINK-4276,PAYLOAD,2024-06-03 22:54:30,15.08852229,0.0001306,53.215,133.5591,90.7085,269.4057,6.7044e-05,7.8e-06,0.0,0 STARLINK-4276,1 53179U 22083AZ  24155.95452066  .00000780  00000-0  67044-4 0  9994,2 53179  53.2150 133.5591 0001306  90.7085 269.4057 15.08852229104739,6917.843,95.437,540.611,538.805,0.0
53179.0,STARLINK-4276,PAYLOAD,2024-06-04 08:26:49,15.08852263,0.0001231,53.2161,131.7739,91.5772,268.5361,4.0204e-05,3.52e-06,0.0,0 STARLINK-4276,1 53179U 22083AZ  24156.35195784  .00000352  00000-0  40204-4 0  9994,2 53179  53.2161 131.7739 0001231  91.5772 268.5361 15.08852263105438,6917.843,95.437,540.559,538.856,0.0
53179.0,STARLINK-4276,PAYLOAD,2024-06-05 05:06:50,15.08839862,0.0001262,53.2169,127.9083,89.7413,270.3724,2.2342e-05,6.8e-07,0.0,0 STARLINK-4276,1 53179U 22083AZ  24157.21308316  .00000068  00000-0  22342-4 0  9994,2 53179  53.2169 127.9083 0001262  89.7413 270.3724 15.08839862105568,6917.881,95.438,540.619,538.873,0.0
53179.0,STARLINK-4276,PAYLOAD,2024-06-05 14:39:08,15.08843727,0.0001287,53.2172,126.1242,89.8276,270.2863,4.1575e-05,3.74e-06,0.0,0 STARLINK-4276,1 53179U 22083AZ  24157.61051982  .00000374  00000-0  41575-4 0  9991,2 53179  53.2172 126.1242 0001287  89.8276 270.2863 15.08843727104988,6917.869,95.437,540.624,538.844,0.0
53179.0,STARLINK-4276,PAYLOAD,2024-06-05 21:00:41,15.08838538,0.0001507,53.2186,124.9389,99.6585,260.4577,1.5209e-05,-4.6e-07,0.0,0 STARLINK-4276,1 53179U 22083AZ  24157.87548425 -.00000046  00000-0  15209-4 0  9994,2 53179  53.2186 124.9389 0001507  99.6585 260.4577 15.08838538105021,6917.885,95.438,540.792,538.707,0.0
53179.0,STARLINK-4276,PAYLOAD,2024-06-06 04:57:38,15.08831635,0.0001215,53.2173,123.4501,96.4262,263.6869,-4.6756e-05,-1.032e-05,0.0,0 STARLINK-4276,1 53179U 22083AZ  24158.20669137 -.00001032  00000-0 -46756-4 0  9994,2 53179  53.2173 123.4501 0001215  96.4262 263.6869 15.08831635105716,6917.906,95.438,540.611,538.93,0.0
53179.0,STARLINK-4276,PAYLOAD,2024-06-06 14:29:56,15.08841713,0.0001282,53.2173,121.6645,91.4793,268.6346,5.6806e-05,6.16e-06,0.0,0 STARLINK-4276,1 53179U 22083AZ  24158.60412297  .00000616  00000-0  56806-4 0  9993,2 53179  53.2173 121.6645 0001282  91.4793 268.6346 15.08841713105132,6917.875,95.437,540.627,538.853,0.0
53179.0,STARLINK-4276,PAYLOAD,2024-06-07 07:59:11,15.08832679,0.0001371,53.2175,118.3934,89.1081,271.0069,1.3851e-05,-6.7e-07,0.0,0 STARLINK-4276,1 53179U 22083AZ  24159.33277356 -.00000067  00000-0  13851-4 0  9993,2 53179  53.2175 118.3934 0001371  89.1081 271.0069 15.08832679105884,6917.903,95.438,540.716,538.819,0.0
53179.0,STARLINK-4276,PAYLOAD,2024-06-07 14:20:43,15.08844926,0.0001597,53.2191,117.2042,84.0209,276.0965,0.00010254,1.344e-05,0.0,0 STARLINK-4276,1 53179U 22083AZ  24159.59772421  .00001344  00000-0  10254-3 0  9995,2 53179  53.2191 117.2042 0001597  84.0209 276.0965 15.08844926105288,6917.865,95.437,540.835,538.626,0.0
53179.0,STARLINK-4276,PAYLOAD,2024-06-07 20:42:16,15.08838028,0.0001361,53.2172,116.0166,88.7849,271.3299,0.00016724,2.375e-05,0.0,0 STARLINK-4276,1 53179U 22083AZ  24159.86268632  .00002375  00000-0  16724-3 0  9992,2 53179  53.2172 116.0166 0001361  88.7849 271.3299 15.08838028105960,6917.886,95.438,540.693,538.81,0.0
53179.0,STARLINK-4276,PAYLOAD,2024-06-08 14:11:29,15.08859343,0.0001388,53.2174,112.7427,78.8714,281.2434,0.00018412,2.645e-05,0.0,0 STARLINK-4276,1 53179U 22083AZ  24160.59131074  .00002645  00000-0  18412-3 0  9999,2 53179  53.2174 112.7427 0001388  78.8714 281.2434 15.08859343105431,6917.821,95.436,540.646,538.726,0.0
53179.0,STARLINK-4276,PAYLOAD,2024-06-09 02:54:36,15.08827546,0.0001258,53.2178,110.3654,79.7585,280.3549,-2.6963e-06,-3.31e-06,0.0,0 STARLINK-4276,1 53179U 22083AZ  24161.12125699 -.00000331  00000-0 -26963-5 0  9999,2 53179  53.2178 110.3654 0001258  79.7585 280.3549 15.08827546106150,6917.918,95.438,540.654,538.913,0.0
53179.0,STARLINK-4276,PAYLOAD,2024-06-09 14:02:17,15.08847256,0.0001467,53.2176,108.2848,80.6027,279.5131,4.0291e-05,3.53e-06,0.0,0 STARLINK-4276,1 53179U 22083AZ  24161.58492401  .00000353  00000-0  40291-4 0  9998,2 53179  53.2176 108.2848 0001467  80.6027 279.5131 15.08847256105586,6917.858,95.437,540.738,538.708,0.0
53179.0,STARLINK-4276,PAYLOAD,2024-06-10 02:45:23,15.0882775,0.0001039,53.2205,105.9011,110.4646,249.6458,0.00018435,2.646e-05,0.0,0 STARLINK-4276,1 53179U 22083AZ  24162.11485260  .00002646  00000-0  18435-3 0  9994,2 53179  53.2205 105.9011 0001039 110.4646 249.6458 15.08827750106307,6917.918,95.438,540.502,539.064,0.0
53179.0,STARLINK-4276,PAYLOAD,2024-06-10 05:56:09,15.08842988,0.0001869,53.2206,105.3058,121.1892,238.9283,-5.375e-05,-1.144e-05,0.0,0 STARLINK-4276,1 53179U 22083AZ  24162.24732852 -.00001144  00000-0 -53750-4 0  9994,2 53179  53.2206 105.3058 0001869 121.1892 238.9283 15.08842988106325,6917.871,95.437,541.029,538.443,0.0
53179.0,STARLINK-4276,PAYLOAD,2024-06-10 13:53:04,15.08844734,0.00017,53.2202,103.8194,91.5334,268.5853,-1.4644e-05,-5.21e-06,0.0,0 STARLINK-4276,1 53179U 22083AZ  24162.57852723 -.00000521  00000-0 -14644-4 0  9997,2 53179  53.2202 103.8194 0001700  91.5334 268.5853 15.08844734105737,6917.866,95.437,540.907,538.555,0.0
53179.0,STARLINK-4276,PAYLOAD,2024-06-11 02:36:10,15.08837048,0.0001433,53.2189,101.444,86.6461,273.4695,5.1195e-05,5.27e-06,0.0,0 STARLINK-4276,1 53179U 22083AZ  24163.10845126  .00000527  00000-0  51195-4 0  9992,2 53179  53.2189 101.4440 0001433  86.6461 273.4695 15.08837048105816,6917.889,95.438,540.746,538.763,0.0
53179.0,STARLINK-4276,PAYLOAD,2024-06-12 02:26:57,15.08841323,0.0001386,53.2181,96.9814,92.6685,267.4466,0.00011065,1.474e-05,0.0,0 STARLINK-4276,1 53179U 22083AZ  24164.10204871  .00001474  00000-0  11065-3 0  9992,2 53179  53.2181  96.9814 0001386  92.6685 267.4466 15.08841323106601,6917.876,95.437,540.7,538.783,0.0
53179.0,STARLINK-4276,PAYLOAD,2024-06-12 05:37:43,15.0883653,0.0001353,53.2184,96.3875,94.8445,265.2702,0.0001926,2.778e-05,0.0,0 STARLINK-4276,1 53179U 22083AZ  24164.23452998  .00002778  00000-0  19260-3 0  9994,2 53179  53.2184  96.3875 0001353  94.8445 265.2702 15.08836530105980,6917.891,95.438,540.692,538.82,0.0
